KUIPER-00085            
1 64831U 25151R   26064.68797234 -.00002007  00000+0 -23436-3 0  9991
2 64831  51.9013 305.8189 0000880 114.6500 245.4554 14.79929423 34882
KUIPER-00086            
1 64832U 25151S   26064.67718091 -.00001439  00000+0 -15983-3 0  9991
2 64832  51.9018 315.8425 0001350  96.0088 264.1028 14.79921244 34741
KUIPER-00087            
1 64833U 25151T   26064.33335647 -.00049162  00000+0 -64540-2 0  9994
2 64833  51.8988 299.8452 0000800 170.0130  56.4172 14.80017017  5508
KUIPER-00089            
1 64834U 25151U   26064.68935367 -.00000634  00000+0 -54365-4 0  9995
2 64834  51.8973 303.2649 0001253  94.3828 265.7277 14.79780114 34928
KUIPER-00090            
1 64835U 25151V   26064.63123153  .00000026  00000+0  32375-4 0  9993
2 64835  51.8958 296.0696 0000837 104.9584 255.1471 14.79924281 35012
KUIPER-00091            
1 64836U 25151W   26064.08618915  .00005398  00000+0  73847-3 0  9993
2 64836  51.9004 303.4611 0000997 107.5983 252.5088 14.79823527 34863
KUIPER-00092            
1 64837U 25151X   26064.75276323 -.00002098  00000+0 -24622-3 0  9994
2 64837  51.9004 308.0051 0001125 110.6815 249.4268 14.79934851 36079
KUIPER-00093            
1 64838U 25151Y   26064.41222910  .00006106  00000+0  82737-3 0  9994
2 64838  51.9003 311.9911 0000907  95.2223 264.8843 14.80026000 34770
KUIPER-00094            
1 64839U 25151Z   26064.32734483  .00009519  00000+0  69539-3 0  9994
2 64839  51.8884 282.4125 0005424 272.5356  87.4996 15.04241205 35189
KUIPER-00081            
1 65132U 25171A   26064.67011042 -.00002352  00000+0 -28010-3 0  9999
2 65132  51.9011 165.8473 0000345  85.2525 274.8476 14.79859448 32449
KUIPER-00088            
1 65133U 25171B   26064.75001156  .00081728  00000+0  11501-1 0  9991
2 65133  51.8994 182.9307 0000800  60.2626 143.6115 14.76553537  5558
KUIPER-00095            
1 65134U 25171C   26064.75001156  .00038900  00000+0  48486-2 0  9999
2 65134  51.8961 163.1914 0001299 136.2023 213.8987 14.82069569  5568
KUIPER-00096            
1 65135U 25171D   26064.55805980  .00001770  00000+0  26109-3 0  9999
2 65135  51.8984 176.3521 0000301 123.0177 237.0815 14.79933095 32288
KUIPER-00097            
1 65136U 25171E   26064.62290610 -.00000398  00000+0 -23209-4 0  9992
2 65136  51.9017 178.6942 0000392  96.2614 263.8393 14.79922048 32246
KUIPER-00098            
1 65137U 25171F   26064.62014757  .00007301  00000+0  98446-3 0  9992
2 65137  51.9011 181.0832 0001877 148.9196 211.1877 14.79984351 31568
KUIPER-00099            
1 65138U 25171G   26064.73314495  .00007410  00000+0  10011-2 0  9999
2 65138  51.9018 170.5764 0000543  41.8087 318.2917 14.79881521 32371
KUIPER-00100            
1 65139U 25171H   26064.70120760 -.00000259  00000+0 -49913-5 0  9999
2 65139  51.9032 168.1901 0000731  36.8113 323.2900 14.79933008 32407
